NORAD_CAT_ID,OBJECT_NAME,OBJECT_TYPE,EPOCH,MEAN_MOTION,ECCENTRICITY,INCLINATION,RA_OF_ASC_NODE,ARG_OF_PERICENTER,MEAN_ANOMALY,BSTAR,MEAN_MOTION_DOT,MEAN_MOTION_DDOT,TLE_LINE0,TLE_LINE1,TLE_LINE2,SEMIMAJOR_AXIS,PERIOD,APOGEE,PERIGEE,DECAYED
55771.0,STARLINK-5591,PAYLOAD,2023-10-23 14:38:51,14.98324148,0.0002864,69.9998,253.1708,267.4952,92.5879,-2.888e-05,-4.37e-06,0.0,0 STARLINK-5591,1 55771U 23028AG  23296.61031261 -.00000437  00000-0 -28880-4 0  9998,2 55771  69.9998 253.1708 0002864 267.4952  92.5879 14.98324148 36506,6950.211,96.107,574.067,570.085,0.0
55771.0,STARLINK-5591,PAYLOAD,2023-10-24 03:27:49,14.98408098,0.0003442,69.9998,251.8232,265.3226,94.754,0.00075142,8.902e-05,0.0,0 STARLINK-5591,1 55771U 23028AG  23297.14432216  .00008902  00000-0  75142-3 0  9997,2 55771  69.9998 251.8232 0003442 265.3226  94.7540 14.98408098 36581,6949.951,96.102,574.209,569.424,0.0
55771.0,STARLINK-5591,PAYLOAD,2023-10-24 06:40:10,14.98338322,0.0002842,69.9996,251.4866,269.0938,90.9896,-2.6399e-05,-4.08e-06,0.0,0 STARLINK-5591,1 55771U 23028AG  23297.27790324 -.00000408  00000-0 -26399-4 0  9994,2 55771  69.9996 251.4866 0002842 269.0938  90.9896 14.98338322 36609,6950.167,96.106,574.007,570.057,0.0
55771.0,STARLINK-5591,PAYLOAD,2023-10-24 14:40:51,14.98336291,0.0002823,69.9998,250.6459,270.0151,90.0684,-9.092e-05,-1.178e-05,0.0,0 STARLINK-5591,1 55771U 23028AG  23297.61170497 -.00001178  00000-0 -90920-4 0  9991,2 55771  69.9998 250.6459 0002823 270.0151  90.0684 14.98336291 36652,6950.173,96.107,574.0,570.076,0.0
55771.0,STARLINK-5591,PAYLOAD,2023-10-25 06:42:12,14.98320989,0.0002713,70.0,248.9627,266.4316,93.6533,0.00026628,3.085e-05,0.0,0 STARLINK-5591,1 55771U 23028AG  23298.27930675  .00003085  00000-0  26628-3 0  9996,2 55771  70.0000 248.9627 0002713 266.4316  93.6533 14.98320989 36756,6950.221,96.108,573.971,570.2,0.0
55771.0,STARLINK-5591,PAYLOAD,2023-10-25 22:43:32,14.98332871,0.0002472,70.0005,247.2804,265.9024,94.1853,-2.0293e-05,-3.35e-06,0.0,0 STARLINK-5591,1 55771U 23028AG  23298.94690714 -.00000335  00000-0 -20293-4 0  9997,2 55771  70.0005 247.2804 0002472 265.9024  94.1853 14.98332871 36857,6950.184,96.107,573.767,570.331,0.0
55771.0,STARLINK-5591,PAYLOAD,2023-10-26 06:44:12,14.98332676,0.0003051,69.9999,246.4378,274.4175,85.6635,0.0001186,1.322e-05,0.0,0 STARLINK-5591,1 55771U 23028AG  23299.28070258  .00001322  00000-0  11860-3 0  9994,2 55771  69.9999 246.4378 0003051 274.4175  85.6635 14.98332676 36901,6950.185,96.107,574.17,569.929,0.0
55771.0,STARLINK-5591,PAYLOAD,2023-10-26 22:45:34,14.98287332,0.0002195,70.0006,244.7564,261.1954,98.8956,0.00078614,9.289e-05,0.0,0 STARLINK-5591,1 55771U 23028AG  23299.94831513  .00009289  00000-0  78614-3 0  9996,2 55771  70.0006 244.7564 0002195 261.1954  98.8956 14.98287332 37009,6950.325,96.11,573.715,570.664,0.0
55771.0,STARLINK-5591,PAYLOAD,2023-10-27 05:10:04,14.98406858,0.0002289,70.0007,244.0834,249.0311,111.0603,-0.0011721,-0.00014077,0.0,0 STARLINK-5591,1 55771U 23028AG  23300.21532521 -.00014077  00000-0 -11721-2 0  9994,2 55771  70.0007 244.0834 0002289 249.0311 111.0603 14.98406858 37046,6949.955,96.102,573.411,570.229,0.0
55771.0,STARLINK-5591,PAYLOAD,2023-10-27 13:10:45,14.98363568,0.0002488,70.0023,243.2406,274.8661,85.2214,-0.00058491,-7.071e-05,0.0,0 STARLINK-5591,1 55771U 23028AG  23300.54913584 -.00007071  00000-0 -58491-3 0  9994,2 55771  70.0023 243.2406 0002488 274.8661  85.2214 14.98363568 37090,6950.089,96.105,573.683,570.225,0.0
55771.0,STARLINK-5591,PAYLOAD,2023-10-27 19:35:18,14.98326049,0.0002327,70.002,242.5676,263.4581,96.6313,4.4498e-05,4.38e-06,0.0,0 STARLINK-5591,1 55771U 23028AG  23300.81618502  .00000438  00000-0  44498-4 0  9997,2 55771  70.0020 242.5676 0002327 263.4581  96.6313 14.98326049 37139,6950.205,96.107,573.687,570.453,0.0
55771.0,STARLINK-5591,PAYLOAD,2023-10-27 22:47:34,14.98325314,0.0002398,70.0016,242.2309,263.7802,96.3084,1.4809e-05,8.4e-07,0.0,0 STARLINK-5591,1 55771U 23028AG  23300.94970652  .00000084  00000-0  14809-4 0  9998,2 55771  70.0016 242.2309 0002398 263.7802  96.3084 14.98325314 37159,6950.207,96.107,573.739,570.406,0.0
55771.0,STARLINK-5591,PAYLOAD,2023-10-28 13:12:47,14.98330857,0.0002583,70.0005,240.7156,271.8281,88.2582,-3.9289e-05,-5.62e-06,0.0,0 STARLINK-5591,1 55771U 23028AG  23301.55054487 -.00000562  00000-0 -39289-4 0  9997,2 55771  70.0005 240.7156 0002583 271.8281  88.2582 14.98330857 37248,6950.19,96.107,573.85,570.26,0.0
55771.0,STARLINK-5591,PAYLOAD,2023-10-28 21:13:27,14.98329503,0.0002858,70.0,239.8739,269.8471,90.2361,-2.171e-05,-3.52e-06,0.0,0 STARLINK-5591,1 55771U 23028AG  23301.88434470 -.00000352  00000-0 -21710-4 0  9994,2 55771  70.0000 239.8739 0002858 269.8471  90.2361 14.98329503 37291,6950.194,96.107,574.046,570.073,0.0
55771.0,STARLINK-5591,PAYLOAD,2023-10-29 03:37:59,14.9833559,0.0002821,69.9998,239.2003,266.1512,93.9325,5.505e-05,5.64e-06,0.0,0 STARLINK-5591,1 55771U 23028AG  23302.15137831  .00000564  00000-0  55050-4 0  9993,2 55771  69.9998 239.2003 0002821 266.1512  93.9325 14.98335590 37336,6950.176,96.107,574.001,570.08,0.0
55771.0,STARLINK-5591,PAYLOAD,2023-10-29 13:14:48,14.98328698,0.0001933,70.0005,238.1897,278.9157,81.1783,-0.00015119,-1.896e-05,0.0,0 STARLINK-5591,1 55771U 23028AG  23302.55195033 -.00001896  00000-0 -15119-3 0  9997,2 55771  70.0005 238.1897 0001933 278.9157  81.1783 14.98328698 37390,6950.197,96.107,573.405,570.718,0.0
55771.0,STARLINK-5591,PAYLOAD,2023-10-29 22:51:37,14.98317798,0.0002787,70.0005,237.1812,272.6585,87.4255,-4.9682e-05,-6.85e-06,0.0,0 STARLINK-5591,1 55771U 23028AG  23302.95251286 -.00000685  00000-0 -49682-4 0  9992,2 55771  70.0005 237.1812 0002787 272.6585  87.4255 14.98317798 37459,6950.231,96.108,574.033,570.159,0.0
55771.0,STARLINK-5591,PAYLOAD,2023-10-30 21:17:29,14.98324241,0.0002909,70.0005,234.8238,271.0065,89.0761,2.5228e-05,2.08e-06,0.0,0 STARLINK-5591,1 55771U 23028AG  23303.88714891  .00000208  00000-0  25228-4 0  9990,2 55771  70.0005 234.8238 0002909 271.0065  89.0761 14.98324241 37593,6950.211,96.107,574.098,570.054,0.0
55771.0,STARLINK-5591,PAYLOAD,2023-10-31 05:18:09,14.98331689,0.0002799,70.0006,233.9832,270.3318,89.7521,5.5101e-05,5.65e-06,0.0,0 STARLINK-5591,1 55771U 23028AG  23304.22094401  .00000565  00000-0  55101-4 0  9996,2 55771  70.0006 233.9832 0002799 270.3318  89.7521 14.98331689 37645,6950.188,96.107,573.998,570.107,0.0
55771.0,STARLINK-5591,PAYLOAD,2023-10-31 13:18:50,14.98330739,0.0002434,70.002,233.1417,273.1905,86.8976,-6.6825e-05,-8.9e-06,0.0,0 STARLINK-5591,1 55771U 23028AG  23304.55474844 -.00000890  00000-0 -66825-4 0  9993,2 55771  70.0020 233.1417 0002434 273.1905  86.8976 14.98330739 37693,6950.191,96.107,573.747,570.364,0.0
55771.0,STARLINK-5591,PAYLOAD,2023-10-31 21:19:30,14.98325142,0.0002531,70.0011,232.3001,273.2031,86.8839,6.527e-05,6.86e-06,0.0,0 STARLINK-5591,1 55771U 23028AG  23304.88854921  .00000686  00000-0  65270-4 0  9991,2 55771  70.0011 232.3001 0002531 273.2031  86.8839 14.98325142 37748,6950.208,96.107,573.832,570.314,0.0
55771.0,STARLINK-5591,PAYLOAD,2023-11-01 05:20:10,14.98330304,0.0002671,70.0009,231.4583,264.1825,95.903,0.0001316,1.478e-05,0.0,0 STARLINK-5591,1 55771U 23028AG  23305.22234352  .00001478  00000-0  13160-3 0  9990,2 55771  70.0009 231.4583 0002671 264.1825  95.9030 14.98330304 37790,6950.192,96.107,573.913,570.201,0.0
55771.0,STARLINK-5591,PAYLOAD,2023-11-01 22:57:39,14.98336786,0.0002534,70.001,229.6069,272.7203,87.3666,-1.9577e-05,-3.27e-06,0.0,0 STARLINK-5591,1 55771U 23028AG  23305.95670307 -.00000327  00000-0 -19577-4 0  9997,2 55771  70.0010 229.6069 0002534 272.7203  87.3666 14.98336786 37906,6950.172,96.107,573.798,570.276,0.0
55771.0,STARLINK-5591,PAYLOAD,2023-11-02 03:46:02,14.98355231,0.0002312,70.0012,229.1034,254.3197,105.7707,-0.00027008,-3.316e-05,0.0,0 STARLINK-5591,1 55771U 23028AG  23306.15697613 -.00003316  00000-0 -27008-3 0  9997,2 55771  70.0012 229.1034 0002312 254.3197 105.7707 14.98355231 37937,6950.115,96.105,573.587,570.373,0.0
55771.0,STARLINK-5591,PAYLOAD,2023-11-02 11:46:42,14.9837617,0.0002652,70.0028,228.2611,277.7886,82.2972,-0.00079017,-9.519e-05,0.0,0 STARLINK-5591,1 55771U 23028AG  23306.49077283 -.00009519  00000-0 -79017-3 0  9997,2 55771  70.0028 228.2611 0002652 277.7886  82.2972 14.98376170 37989,6950.05,96.104,573.758,570.072,0.0
55771.0,STARLINK-5591,PAYLOAD,2023-11-02 19:47:24,14.98330611,0.0002702,70.0029,227.4196,269.828,90.2569,1.1709e-05,4.7e-07,0.0,0 STARLINK-5591,1 55771U 23028AG  23306.82458358  .00000047  00000-0  11709-4 0  9990,2 55771  70.0029 227.4196 0002702 269.8280  90.2569 14.98330611 38033,6950.191,96.107,573.934,570.178,0.0
55771.0,STARLINK-5591,PAYLOAD,2023-11-02 21:23:32,14.9832901,0.0002763,70.002,227.2519,272.8024,87.2819,-1.2415e-05,-2.41e-06,0.0,0 STARLINK-5591,1 55771U 23028AG  23306.89134535 -.00000241  00000-0 -12415-4 0  9998,2 55771  70.0020 227.2519 0002763 272.8024  87.2819 14.98329010 38044,6950.196,96.107,573.981,570.141,0.0
55771.0,STARLINK-5591,PAYLOAD,2023-11-03 11:48:43,14.98372313,0.0002721,70.0019,225.7358,277.8482,82.2368,-0.00070748,-8.533e-05,0.0,0 STARLINK-5591,1 55771U 23028AG  23307.49217185 -.00008533  00000-0 -70748-3 0  9992,2 55771  70.0019 225.7358 0002721 277.8482  82.2368 14.98372313 38131,6950.062,96.104,573.818,570.036,0.0
55771.0,STARLINK-5591,PAYLOAD,2023-11-03 21:25:32,14.98329937,0.0002722,70.0015,224.7267,272.3162,87.7685,-1.455e-05,-2.67e-06,0.0,0 STARLINK-5591,1 55771U 23028AG  23307.89274260 -.00000267  00000-0 -14550-4 0  9999,2 55771  70.0015 224.7267 0002722 272.3162  87.7685 14.98329937 38193,6950.193,96.107,573.95,570.166,0.0
55771.0,STARLINK-5591,PAYLOAD,2023-11-04 03:50:05,14.98332027,0.0002685,70.0015,224.0537,270.7463,89.3388,4.245e-06,-4.2e-07,0.0,0 STARLINK-5591,1 55771U 23028AG  23308.15978065 -.00000042  00000-0  42450-5 0  9994,2 55771  70.0015 224.0537 0002685 270.7463  89.3388 14.98332027 38237,6950.187,96.107,573.918,570.185,0.0
